              M50 Cartesian                         J2K Cartesian  
    -----------------------------------       --------------------------------
     X    =       17256037.11                 X    =         5291701.18
     Y    =      -12387216.90  feet           Y    =        -3716627.65  meter
     Z    =        6597291.43                 Z    =         2036482.65
     XDOT =       4982.486953                 XDOT =        1434.789785
     YDOT =      16675.872098  feet/sec       YDOT =        5099.319558  meter/sec
     ZDOT =      18183.208669                 ZDOT =        5549.415647
 
              TDR Cartesian                         TDR Cartesian  
    -----------------------------------       --------------------------------
     X    =         -32865.50                 X    =          -10017.40
     Y    =      -21206654.66  feet           Y    =        -6463788.34  meter
     Z    =        6709316.76                 Z    =         2044999.75
     XDOT =      14841.345070                 XDOT =        4523.641977
     YDOT =       5769.000203  feet/sec       YDOT =        1758.391262  meter/sec
     ZDOT =      18213.363500                 ZDOT =        5551.433195
  
  
    The mean element set is posted at the UTC for which position is
    just north of the next ascending node relative to the above
    vector time
 
 
    TWO LINE MEAN ELEMENT SET
  
    ISS
    1 25544U 98067A   16118.61370831  .00016717  00000-0  10270-3 0  9148
    2 25544  51.6396 310.2981 0001646  68.9656 291.1673 15.54357152 37112
  
  
    Satellite: ISS
    Catalog Number: 25544
    Epoch time:      16118.61370831   =   yrday.fracday
    Element set:     914
    Inclination:       51.6396  deg
    RA of node:       310.2981  deg
    Eccentricity:     .0001646     
    Arg of perigee:    68.9656  deg
    Mean anomaly:     291.1673  deg
    Mean motion:   15.54357152  rev/day
    Decay rate:    1.67170E-04  rev/day^2
    Epoch rev:            3711
    Checksum:              314
 
             </PRE>
           </TD>
        </TR>
    </TABLE>
    
    <table align="center" border="0" width="600" cellpadding="0" cellspacing="0">
      <tr>
        <td align="center" valign="top"><hr size="1" width="600" noshade="noshade" />
        <font face="Arial,helvetica" size="-2">Curator: <a href="/cgi-bin/comment.cgi?jsc-hsfwebma@mail.nasa.gov">Kim 
          Dismukes</a> | Responsible NASA Official: <a href="/cgi-bin/comment.cgi?jsc-hsfwebma@mail.nasa.gov">Amiko Kauderer</a> | Updated: 06/08/2009<br />
        <a href="http://www.nasa.gov/about/highlights/HP_Privacy.html">Privacy Policy and Important Notices</a></font></td>
      </tr>
    </table>
    </body>
    </html>
